2022-152C               
1 54239U 22152C   22317.26139303 -.00002394  75762-5  00000+0 0  9997
2 54239  41.6685  30.4034 0115049 203.5607 201.3335 16.02019351   175
CZ-7 R/B                
1 54240U 22152D   22317.49915711  .02439727  78848-5  58860-3 0  9993
2 54240  41.4657  28.4938 0015230 197.4348 290.8902 16.28056251   236
2022-152E               
1 54241U 22152E   22316.64656787 -.00002290  72485-5  00000+0 0  9995
2 54241  41.0899  34.3650 0115404 154.3955 322.8884 16.00906109    59
2022-152F               
1 54242U 22152F   22316.64660029 -.00002350  74364-5  00000+0 0  9995
2 54242  41.3020  34.3097 0123662 147.1627 330.3618 16.01028283    53
2022-153A               
1 54243U 22153A   22316.84824063 -.00000317  00000+0  00000+0 0  9990
2 54243  24.1969 127.5643 8136036 179.9751  73.2957  1.28512785    07
2022-153B               
1 54244U 22153B   22316.83817582 -.00000010  00000+0  00000+0 0  9998
2 54244  22.2571 129.9478 8130757 177.8005  68.5970  1.28377396    00
